{"fetched_at":"2026-07-15T06:35:42.366Z","source":"https://celestrak.org/NORAD/elements/gp.php?GROUP=spire&FORMAT=JSON","constellation":"spire","records":[{"OBJECT_NAME":"LEMUR-2-HUBBLE-4","OBJECT_ID":"2025-135AP","EPOCH":"2026-07-14T22:33:54.660672","CLASSIFICATION_TYPE":"U","MEAN_MOTION":14.93685564,"ECCENTRICITY":0.00026506,"INCLINATION":97.7719,"RA_OF_ASC_NODE":309.5247,"ARG_OF_PERICENTER":162.7068,"MEAN_ANOMALY":197.4243,"EPHEMERIS_TYPE":0,"NORAD_CAT_ID":64565,"ELEMENT_SET_NO":999,"REV_AT_EPOCH":5801,"BSTAR":0.000093599964,"MEAN_MOTION_DOT":0.00000933,"MEAN_MOTION_DDOT":0},{"OBJECT_NAME":"LEMUR-2-SEJONG-2","OBJECT_ID":"2025-135BL","EPOCH":"2026-07-14T21:56:13.951968","CLASSIFICATION_TYPE":"U","MEAN_MOTION":14.96910234,"ECCENTRICITY":0.00039552,"INCLINATION":97.7707,"RA_OF_ASC_NODE":310.7513,"ARG_OF_PERICENTER":220.0704,"MEAN_ANOMALY":140.0226,"EPHEMERIS_TYPE":0,"NORAD_CAT_ID":64586,"ELEMENT_SET_NO":999,"REV_AT_EPOCH":5809,"BSTAR":0.00018896905,"MEAN_MOTION_DOT":0.00002111,"MEAN_MOTION_DDOT":0},{"OBJECT_NAME":"LEMUR-2-HUBBLE-5","OBJECT_ID":"2025-135BT","EPOCH":"2026-07-14T21:10:19.886304","CLASSIFICATION_TYPE":"U","MEAN_MOTION":14.94213274,"ECCENTRICITY":0.0004295,"INCLINATION":97.774,"RA_OF_ASC_NODE":310.1359,"ARG_OF_PERICENTER":236.4983,"MEAN_ANOMALY":123.5827,"EPHEMERIS_TYPE":0,"NORAD_CAT_ID":64840,"ELEMENT_SET_NO":999,"REV_AT_EPOCH":5804,"BSTAR":0.000075317708,"MEAN_MOTION_DOT":0.0000075,"MEAN_MOTION_DDOT":0},{"OBJECT_NAME":"LEMUR-2-KARENDARRELL","OBJECT_ID":"2025-135BU","EPOCH":"2026-07-14T20:42:45.582048","CLASSIFICATION_TYPE":"U","MEAN_MOTION":15.00496961,"ECCENTRICITY":0.00124091,"INCLINATION":97.7716,"RA_OF_ASC_NODE":312.0347,"ARG_OF_PERICENTER":105.817,"MEAN_ANOMALY":254.4422,"EPHEMERIS_TYPE":0,"NORAD_CAT_ID":64841,"ELEMENT_SET_NO":999,"REV_AT_EPOCH":5816,"BSTAR":0.00033967518,"MEAN_MOTION_DOT":0.00004225,"MEAN_MOTION_DDOT":0},{"OBJECT_NAME":"LEMUR-2-LUCILLE-ROSE","OBJECT_ID":"2025-135BV","EPOCH":"2026-07-14T20:04:31.574784","CLASSIFICATION_TYPE":"U","MEAN_MOTION":15.00486338,"ECCENTRICITY":0.00148827,"INCLINATION":97.7711,"RA_OF_ASC_NODE":312.0433,"ARG_OF_PERICENTER":190.0513,"MEAN_ANOMALY":170.0415,"EPHEMERIS_TYPE":0,"NORAD_CAT_ID":65403,"ELEMENT_SET_NO":999,"REV_AT_EPOCH":5278,"BSTAR":0.00027829675,"MEAN_MOTION_DOT":0.00003451,"MEAN_MOTION_DDOT":0},{"OBJECT_NAME":"LEMUR-2-AFFIE-WAUWIE","OBJECT_ID":"2025-248C","EPOCH":"2026-07-14T09:19:56.627040","CLASSIFICATION_TYPE":"U","MEAN_MOTION":15.28229453,"ECCENTRICITY":0.00087596,"INCLINATION":45.3893,"RA_OF_ASC_NODE":327.4899,"ARG_OF_PERICENTER":246.6108,"MEAN_ANOMALY":113.386,"EPHEMERIS_TYPE":0,"NORAD_CAT_ID":66295,"ELEMENT_SET_NO":999,"REV_AT_EPOCH":3875,"BSTAR":0.00047322499,"MEAN_MOTION_DOT":0.00012991,"MEAN_MOTION_DDOT":0},{"OBJECT_NAME":"OTTER SDM","OBJECT_ID":"2025-276N","EPOCH":"2026-07-14T04:13:03.478944","CLASSIFICATION_TYPE":"U","MEAN_MOTION":15.2004988,"ECCENTRICITY":0.00042681,"INCLINATION":97.4208,"RA_OF_ASC_NODE":268.2073,"ARG_OF_PERICENTER":258.7712,"MEAN_ANOMALY":101.3043,"EPHEMERIS_TYPE":0,"NORAD_CAT_ID":66678,"ELEMENT_SET_NO":999,"REV_AT_EPOCH":3451,"BSTAR":0.00016567661,"MEAN_MOTION_DOT":0.00003505,"MEAN_MOTION_DDOT":0},{"OBJECT_NAME":"LEMUR-2-STAS-GORBUK","OBJECT_ID":"2025-276W","EPOCH":"2026-07-14T17:22:05.266848","CLASSIFICATION_TYPE":"U","MEAN_MOTION":15.19655944,"ECCENTRICITY":0.00035816,"INCLINATION":97.4241,"RA_OF_ASC_NODE":268.7981,"ARG_OF_PERICENTER":250.0656,"MEAN_ANOMALY":110.0194,"EPHEMERIS_TYPE":0,"NORAD_CAT_ID":66686,"ELEMENT_SET_NO":999,"REV_AT_EPOCH":3459,"BSTAR":0.00013445371,"MEAN_MOTION_DOT":0.00002799,"MEAN_MOTION_DDOT":0},{"OBJECT_NAME":"LEMUR-2-TEODOR","OBJECT_ID":"2025-276DG","EPOCH":"2026-07-14T17:49:52.589856","CLASSIFICATION_TYPE":"U","MEAN_MOTION":15.21334512,"ECCENTRICITY":0.00022312,"INCLINATION":97.4146,"RA_OF_ASC_NODE":269.0885,"ARG_OF_PERICENTER":87.3764,"MEAN_ANOMALY":272.7727,"EPHEMERIS_TYPE":0,"NORAD_CAT_ID":66768,"ELEMENT_SET_NO":999,"REV_AT_EPOCH":3463,"BSTAR":0.00015199479,"MEAN_MOTION_DOT":0.00003334,"MEAN_MOTION_DDOT":0},{"OBJECT_NAME":"LEMUR-2-LAILA","OBJECT_ID":"2025-276DQ","EPOCH":"2026-07-14T21:50:35.219904","CLASSIFICATION_TYPE":"U","MEAN_MOTION":15.21561549,"ECCENTRICITY":0.00029204,"INCLINATION":97.417,"RA_OF_ASC_NODE":269.3915,"ARG_OF_PERICENTER":95.2226,"MEAN_ANOMALY":264.9343,"EPHEMERIS_TYPE":0,"NORAD_CAT_ID":66776,"ELEMENT_SET_NO":999,"REV_AT_EPOCH":3466,"BSTAR":0.00014028227,"MEAN_MOTION_DOT":0.00003093,"MEAN_MOTION_DDOT":0},{"OBJECT_NAME":"LEMUR-2-CELIJO-SB-PK","OBJECT_ID":"2025-276DW","EPOCH":"2026-07-14T17:13:56.069184","CLASSIFICATION_TYPE":"U","MEAN_MOTION":15.00280687,"ECCENTRICITY":0.00070446,"INCLINATION":97.52,"RA_OF_ASC_NODE":265.5868,"ARG_OF_PERICENTER":65.5259,"MEAN_ANOMALY":294.67,"EPHEMERIS_TYPE":0,"NORAD_CAT_ID":66781,"ELEMENT_SET_NO":999,"REV_AT_EPOCH":2675,"BSTAR":0.00022037788,"MEAN_MOTION_DOT":0.00002704,"MEAN_MOTION_DDOT":0},{"OBJECT_NAME":"LEMUR-2-FINNIAN","OBJECT_ID":"2025-276DX","EPOCH":"2026-07-14T10:07:12.706176","CLASSIFICATION_TYPE":"U","MEAN_MOTION":15.00610397,"ECCENTRICITY":0.00084412,"INCLINATION":97.5382,"RA_OF_ASC_NODE":265.5655,"ARG_OF_PERICENTER":359.1143,"MEAN_ANOMALY":1.0065,"EPHEMERIS_TYPE":0,"NORAD_CAT_ID":66782,"ELEMENT_SET_NO":999,"REV_AT_EPOCH":2408,"BSTAR":0.00013038039,"MEAN_MOTION_DOT":0.0000159,"MEAN_MOTION_DDOT":0},{"OBJECT_NAME":"LEMUR-2-STARLIGHT","OBJECT_ID":"2025-276DY","EPOCH":"2026-07-14T17:38:50.687232","CLASSIFICATION_TYPE":"U","MEAN_MOTION":14.99351208,"ECCENTRICITY":0.00147926,"INCLINATION":97.5235,"RA_OF_ASC_NODE":265.4323,"ARG_OF_PERICENTER":48.7667,"MEAN_ANOMALY":311.4829,"EPHEMERIS_TYPE":0,"NORAD_CAT_ID":66783,"ELEMENT_SET_NO":999,"REV_AT_EPOCH":3432,"BSTAR":0.00031171199,"MEAN_MOTION_DOT":0.00003763,"MEAN_MOTION_DDOT":0},{"OBJECT_NAME":"LEMUR-2-TARTIFLETTE","OBJECT_ID":"2025-276DZ","EPOCH":"2026-07-14T17:36:32.058432","CLASSIFICATION_TYPE":"U","MEAN_MOTION":14.99336751,"ECCENTRICITY":0.00139376,"INCLINATION":97.5235,"RA_OF_ASC_NODE":265.4388,"ARG_OF_PERICENTER":57.0053,"MEAN_ANOMALY":303.2508,"EPHEMERIS_TYPE":0,"NORAD_CAT_ID":66784,"ELEMENT_SET_NO":999,"REV_AT_EPOCH":3432,"BSTAR":0.00028902556,"MEAN_MOTION_DOT":0.00003482,"MEAN_MOTION_DDOT":0},{"OBJECT_NAME":"LEMUR-2-VUKASIN","OBJECT_ID":"2025-276EA","EPOCH":"2026-07-14T21:42:27.533376","CLASSIFICATION_TYPE":"U","MEAN_MOTION":15.00545067,"ECCENTRICITY":0.00030914,"INCLINATION":97.5228,"RA_OF_ASC_NODE":265.9622,"ARG_OF_PERICENTER":55.8978,"MEAN_ANOMALY":304.254,"EPHEMERIS_TYPE":0,"NORAD_CAT_ID":66785,"ELEMENT_SET_NO":999,"REV_AT_EPOCH":3430,"BSTAR":0.00020886322,"MEAN_MOTION_DOT":0.00002577,"MEAN_MOTION_DDOT":0},{"OBJECT_NAME":"LEMUR-2-HOTSPUR-TOM","OBJECT_ID":"2025-276EB","EPOCH":"2026-07-14T17:28:25.762944","CLASSIFICATION_TYPE":"U","MEAN_MOTION":14.99238405,"ECCENTRICITY":0.00138052,"INCLINATION":97.522,"RA_OF_ASC_NODE":265.4077,"ARG_OF_PERICENTER":48.2453,"MEAN_ANOMALY":311.9949,"EPHEMERIS_TYPE":0,"NORAD_CAT_ID":66786,"ELEMENT_SET_NO":999,"REV_AT_EPOCH":3425,"BSTAR":0.00024802372,"MEAN_MOTION_DOT":0.00002972,"MEAN_MOTION_DDOT":0}]}
